[{"OBJECT_NAME":"STARLINK-31748","OBJECT_ID":"2024-080M","EPOCH":"2026-03-09T22:35:20.130144","MEAN_MOTION":15.2757242,"ECCENTRICITY":0.00013055,"INCLINATION":43.0046,"RA_OF_ASC_NODE":32.8124,"ARG_OF_PERICENTER":246.2155,"MEAN_ANOMALY":113.856,"EPHEMERIS_TYPE":0,"CLASSIFICATION_TYPE":"U","NORAD_CAT_ID":59612,"ELEMENT_SET_NO":999,"REV_AT_EPOCH":10578,"BSTAR":-0.0001177294,"MEAN_MOTION_DOT":-3.5e-5,"MEAN_MOTION_DDOT":0},{"OBJECT_NAME":"FLOCK 4G-17","OBJECT_ID":"2025-009CA","EPOCH":"2026-03-09T22:51:51.984864","MEAN_MOTION":15.27385439,"ECCENTRICITY":0.00036407,"INCLINATION":97.3966,"RA_OF_ASC_NODE":151.0229,"ARG_OF_PERICENTER":339.6132,"MEAN_ANOMALY":20.4962,"EPHEMERIS_TYPE":0,"CLASSIFICATION_TYPE":"U","NORAD_CAT_ID":62681,"ELEMENT_SET_NO":999,"REV_AT_EPOCH":12139,"BSTAR":0.00053710713,"MEAN_MOTION_DOT":0.00014342,"MEAN_MOTION_DDOT":0}]
